IRNSS-1I                
1 43286U 18035A   26175.79975266  .00000066  00000+0  00000+0 0  9992
2 43286  28.7725  74.0767 0017621 182.3144 359.3363  1.00275960 30158
COSMOS 2527 (756)       
1 43508U 18053A   26177.00066066 -.00000062  00000+0  00000+0 0  9991
2 43508  65.5828  73.6132 0006873 236.8993 123.0709  2.13102108 62460
BEIDOU-2 IGSO-7 (C16)   
1 43539U 18057A   26177.50590209 -.00000028  00000+0  00000+0 0  9997
2 43539  55.1970 162.9757 0104768 237.9790 164.9478  1.00249004 29227
GSAT0221 (GALILEO 25)   
1 43564U 18060A   26177.45031272 -.00000095  00000+0  00000+0 0  9997
2 43564  57.1663 341.5303 0002518 298.4226  61.5466  1.70476262 49321
GSAT0222 (GALILEO 26)   
1 43565U 18060B   26176.49681494 -.00000097  00000+0  00000+0 0  9990
2 43565  57.1695 341.5596 0002086 244.5899 115.3843  1.70476000 49359
GSAT0219 (GALILEO 23)   
1 43566U 18060C   26177.30427826 -.00000096  00000+0  00000+0 0  9998
2 43566  57.1694 341.5394 0001792 314.3403  45.6398  1.70476218 49345
GSAT0220 (GALILEO 24)   
1 43567U 18060D   26175.76552895 -.00000097  00000+0  00000+0 0  9993
2 43567  57.1676 341.5803 0001926 308.3062  51.6730  1.70476182 49307
BEIDOU-3 M5 (C23)       
1 43581U 18062A   26177.23533584  .00000097  00000+0  00000+0 0  9998
2 43581  54.0859 181.9962 0005829 291.5726  68.3953  1.86228770 53807
BEIDOU-3 M6 (C24)       
1 43582U 18062B   26177.09884921  .00000098  00000+0  00000+0 0  9998
2 43582  54.0857 181.9897 0005057   9.2241 350.8155  1.86228182 53802
BEIDOU-3 M12 (C26)      
1 43602U 18067A   26177.03726485  .00000098  00000+0  00000+0 0  9990
2 43602  54.1810 180.7397 0007828  29.5974 330.4748  1.86227758 53285
BEIDOU-3 M11 (C25)      
1 43603U 18067B   26177.17235314  .00000097  00000+0  00000+0 0  9991
2 43603  54.1781 180.6987 0004573  12.4630 347.5758  1.86227233 53313
BEIDOU-3 M13 (C32)      
1 43622U 18072A   26177.12714117 -.00000087  00000+0  00000+0 0  9996
2 43622  56.6328  62.3641 0007050 330.4803  29.5224  1.86231341 52824
BEIDOU-3 M14 (C33)      
1 43623U 18072B   26176.99258439 -.00000088  00000+0  00000+0 0  9992
2 43623  56.6345  62.3631 0006093   4.7501 355.2976  1.86231224 52817
BEIDOU-3 M16 (C35)      
1 43647U 18078A   26173.92607756 -.00000107  00000+0  00000+0 0  9996
2 43647  54.0842 299.7848 0007075  40.9359 319.1123  1.86232370 52262
BEIDOU-3 M15 (C34)      
1 43648U 18078B   26177.27704184 -.00000100  00000+0  00000+0 0  9995
2 43648  54.0766 299.6676 0003991  57.9517 302.0826  1.86232565 52349
BEIDOU-3 G1 (C59)       
1 43683U 18085A   26177.69732213 -.00000100  00000+0  00000+0 0  9992
2 43683   2.8928  97.1146 0008540 351.5726 237.0933  1.00271037 28153
COSMOS 2529 (757)       
1 43687U 18086A   26177.09708310  .00000106  00000+0  00000+0 0  9997
2 43687  64.2953 192.2935 0012114 256.4695 103.4491  2.13102017 59470
